BEIDOU-3S M2S-C57
1 40748U 15037A   23124.14492847 -.00000061  00000+0  00000+0 0  9996
2 40748  55.7294 340.9253 0005536  29.7645 223.6122  1.86233326 52880
